{
  "norad_id": 67305,
  "name": "STARLINK-36490",
  "history": [
    {
      "epoch": "2026-03-28T15:51:11.564928",
      "apogee_km": 483.8882711702081,
      "perigee_km": 482.0549829450583,
      "latitude_deg": 37.404296657214765,
      "longitude_deg": -106.08715007989667,
      "semi_major_axis_km": 6861.1086270576325,
      "eccentricity": 0.0001336,
      "inclination_deg": 42.9997,
      "raan_deg": 217.8377,
      "arg_perigee_deg": 271.99,
      "mean_anomaly_deg": 88.0799,
      "mean_motion_rev_day": 15.27605872
    }
  ]
}